{
  "type": "FeatureCollection",
  "features": [
    {
      "type": "Feature",
      "properties": {
        "norad_id": 38124,
        "name": "FENGYUN 1C DEB",
        "group": "fengyun-1c-debris",
        "lat": -70.73854955968487,
        "lon": 107.31602542676451,
        "alt_km": 857.5047677619141,
        "timestamp": "2025-12-27T02:10:16.479179+00:00",
        "meta_object_name": "FENGYUN 1C DEB",
        "meta_object_id": "1999-025EPV",
        "meta_epoch": "2025-12-26T14:08:47.139936",
        "meta_mean_motion": 13.40940286,
        "meta_eccentricity": 0.0355152,
        "meta_inclination": 97.8088,
        "meta_ra_of_asc_node": 310.0498,
        "meta_arg_of_pericenter": 270.1541,
        "meta_mean_anomaly": 85.8909,
        "meta_ephemeris_type": 0,
        "meta_classification_type": "U",
        "meta_norad_cat_id": 38124,
        "meta_element_set_no": 999,
        "meta_rev_at_epoch": 54767,
        "meta_bstar": 0.00024512,
        "meta_mean_motion_dot": 1.64e-06,
        "meta_mean_motion_ddot": 0,
        "tle_line1": "1 38124U 99025EPV 25360.58943449  .00000164  00000+0  24512-3 0  9992",
        "tle_line2": "2 38124  97.8088 310.0498 0355152 270.1541  85.8909 13.40940286547671"
      },
      "geometry": {
        "type": "Point",
        "coordinates": [
          107.31602542676451,
          -70.73854955968487
        ]
      }
    },
    {
      "type": "Feature",
      "properties": {
        "norad_id": 38130,
        "name": "FENGYUN 1C DEB",
        "group": "fengyun-1c-debris",
        "lat": 28.946130527121593,
        "lon": 46.64420544618499,
        "alt_km": 1112.3121199153456,
        "timestamp": "2025-12-27T02:10:16.479189+00:00",
        "meta_object_name": "FENGYUN 1C DEB",
        "meta_object_id": "1999-025EQB",
        "meta_epoch": "2025-11-28T09:19:02.490528",
        "meta_mean_motion": 13.7720595,
        "meta_eccentricity": 0.02085156,
        "meta_inclination": 98.6035,
        "meta_ra_of_asc_node": 25.4413,
        "meta_arg_of_pericenter": 263.5047,
        "meta_mean_anomaly": 94.2329,
        "meta_ephemeris_type": 0,
        "meta_classification_type": "U",
        "meta_norad_cat_id": 38130,
        "meta_element_set_no": 999,
        "meta_rev_at_epoch": 69085,
        "meta_bstar": 0.0016964005,
        "meta_mean_motion_dot": 1.933e-05,
        "meta_mean_motion_ddot": 0,
        "tle_line1": "1 38130U 99025EQB 25332.38822327  .00001933  00000+0  16964-2 0  9993",
        "tle_line2": "2 38130  98.6035  25.4413 0208515 263.5047  94.2329 13.77205950690851"
      },
      "geometry": {
        "type": "Point",
        "coordinates": [
          46.64420544618499,
          28.946130527121593
        ]
      }
    },
    {
      "type": "Feature",
      "properties": {
        "norad_id": 38135,
        "name": "FENGYUN 1C DEB",
        "group": "fengyun-1c-debris",
        "lat": -2.0412663840366,
        "lon": 58.012577999750654,
        "alt_km": 673.4180082535877,
        "timestamp": "2025-12-27T02:10:16.479199+00:00",
        "meta_object_name": "FENGYUN 1C DEB",
        "meta_object_id": "1999-025EQG",
        "meta_epoch": "2025-12-20T10:07:36.417792",
        "meta_mean_motion": 14.25297349,
        "meta_eccentricity": 0.02226674,
        "meta_inclination": 98.6595,
        "meta_ra_of_asc_node": 51.1134,
        "meta_arg_of_pericenter": 49.0857,
        "meta_mean_anomaly": 312.9371,
        "meta_ephemeris_type": 0,
        "meta_classification_type": "U",
        "meta_norad_cat_id": 38135,
        "meta_element_set_no": 999,
        "meta_rev_at_epoch": 61150,
        "meta_bstar": 0.00027123211,
        "meta_mean_motion_dot": 7.8e-06,
        "meta_mean_motion_ddot": 0,
        "tle_line1": "1 38135U 99025EQG 25354.42194928  .00000780  00000+0  27123-3 0  9995",
        "tle_line2": "2 38135  98.6595  51.1134 0222667  49.0857 312.9371 14.25297349611502"
      },
      "geometry": {
        "type": "Point",
        "coordinates": [
          58.012577999750654,
          -2.0412663840366
        ]
      }
    },
    {
      "type": "Feature",
      "properties": {
        "norad_id": 38137,
        "name": "FENGYUN 1C DEB",
        "group": "fengyun-1c-debris",
        "lat": 74.97669580017289,
        "lon": 7.976648837730422,
        "alt_km": 842.9444227525764,
        "timestamp": "2025-12-27T02:10:16.479210+00:00",
        "meta_object_name": "FENGYUN 1C DEB",
        "meta_object_id": "1999-025EQJ",
        "meta_epoch": "2025-12-11T22:03:53.453088",
        "meta_mean_motion": 14.06158007,
        "meta_eccentricity": 0.0046494,
        "meta_inclination": 98.8649,
        "meta_ra_of_asc_node": 28.6821,
        "meta_arg_of_pericenter": 71.683,
        "meta_mean_anomaly": 288.9388,
        "meta_ephemeris_type": 0,
        "meta_classification_type": "U",
        "meta_norad_cat_id": 38137,
        "meta_element_set_no": 999,
        "meta_rev_at_epoch": 63697,
        "meta_bstar": 0.00049172,
        "meta_mean_motion_dot": 7.73e-06,
        "meta_mean_motion_ddot": 0,
        "tle_line1": "1 38137U 99025EQJ 25345.91936867  .00000773  00000+0  49172-3 0  9997",
        "tle_line2": "2 38137  98.8649  28.6821 0046494  71.6830 288.9388 14.06158007636976"
      },
      "geometry": {
        "type": "Point",
        "coordinates": [
          7.976648837730422,
          74.97669580017289
        ]
      }
    },
    {
      "type": "Feature",
      "properties": {
        "norad_id": 38143,
        "name": "FENGYUN 1C DEB",
        "group": "fengyun-1c-debris",
        "lat": 39.3949380363497,
        "lon": -115.5629186477765,
        "alt_km": 842.6760589011556,
        "timestamp": "2025-12-27T02:10:16.479220+00:00",
        "meta_object_name": "FENGYUN 1C DEB",
        "meta_object_id": "1999-025EQQ",
        "meta_epoch": "2025-12-17T09:02:58.047936",
        "meta_mean_motion": 14.0490641,
        "meta_eccentricity": 0.00563343,
        "meta_inclination": 99.0304,
        "meta_ra_of_asc_node": 47.2681,
        "meta_arg_of_pericenter": 207.7954,
        "meta_mean_anomaly": 152.0199,
        "meta_ephemeris_type": 0,
        "meta_classification_type": "U",
        "meta_norad_cat_id": 38143,
        "meta_element_set_no": 999,
        "meta_rev_at_epoch": 60348,
        "meta_bstar": 0.00075665918,
        "meta_mean_motion_dot": 1.189e-05,
        "meta_mean_motion_ddot": 0,
        "tle_line1": "1 38143U 99025EQQ 25351.37706074  .00001189  00000+0  75666-3 0  9995",
        "tle_line2": "2 38143  99.0304  47.2681 0056334 207.7954 152.0199 14.04906410603486"
      },
      "geometry": {
        "type": "Point",
        "coordinates": [
          -115.5629186477765,
          39.3949380363497
        ]
      }
    },
    {
      "type": "Feature",
      "properties": {
        "norad_id": 38144,
        "name": "FENGYUN 1C DEB",
        "group": "fengyun-1c-debris",
        "lat": -64.09011772584704,
        "lon": -156.67822717703763,
        "alt_km": 1208.064277639356,
        "timestamp": "2025-12-27T02:10:16.479230+00:00",
        "meta_object_name": "FENGYUN 1C DEB",
        "meta_object_id": "1999-025EQR",
        "meta_epoch": "2025-12-12T07:21:41.538528",
        "meta_mean_motion": 13.59024242,
        "meta_eccentricity": 0.02903277,
        "meta_inclination": 98.9688,
        "meta_ra_of_asc_node": 170.8072,
        "meta_arg_of_pericenter": 192.7812,
        "meta_mean_anomaly": 166.5857,
        "meta_ephemeris_type": 0,
        "meta_classification_type": "U",
        "meta_norad_cat_id": 38144,
        "meta_element_set_no": 999,
        "meta_rev_at_epoch": 61031,
        "meta_bstar": 0.0024533733,
        "meta_mean_motion_dot": 2.337e-05,
        "meta_mean_motion_ddot": 0,
        "tle_line1": "1 38144U 99025EQR 25346.30673077  .00002337  00000+0  24534-2 0  9992",
        "tle_line2": "2 38144  98.9688 170.8072 0290327 192.7812 166.5857 13.59024242610319"
      },
      "geometry": {
        "type": "Point",
        "coordinates": [
          -156.67822717703763,
          -64.09011772584704
        ]
      }
    },
    {
      "type": "Feature",
      "properties": {
        "norad_id": 38146,
        "name": "FENGYUN 1C DEB",
        "group": "fengyun-1c-debris",
        "lat": -13.06069032114226,
        "lon": 85.86428788358943,
        "alt_km": 655.6815449003307,
        "timestamp": "2025-12-27T02:10:16.479241+00:00",
        "meta_object_name": "FENGYUN 1C DEB",
        "meta_object_id": "1999-025EQT",
        "meta_epoch": "2025-12-25T12:25:53.891040",
        "meta_mean_motion": 14.59352927,
        "meta_eccentricity": 0.0201846,
        "meta_inclination": 99.4818,
        "meta_ra_of_asc_node": 81.8467,
        "meta_arg_of_pericenter": 64.7401,
        "meta_mean_anomaly": 307.702,
        "meta_ephemeris_type": 0,
        "meta_classification_type": "U",
        "meta_norad_cat_id": 38146,
        "meta_element_set_no": 999,
        "meta_rev_at_epoch": 32066,
        "meta_bstar": 0.00075321,
        "meta_mean_motion_dot": 4.671e-05,
        "meta_mean_motion_ddot": 0,
        "tle_line1": "1 38146U 99025EQT 25359.51798485  .00004671  00000+0  75321-3 0  9996",
        "tle_line2": "2 38146  99.4818  81.8467 0201846  64.7401 307.7020 14.59352927320663"
      },
      "geometry": {
        "type": "Point",
        "coordinates": [
          85.86428788358943,
          -13.06069032114226
        ]
      }
    }
  ]
}